{
    "links": {
        "self": "http://www.neowsapp.com/rest/v1/neo/3726658?api_key=iIulBulltgU6a56xZRHN4H3l9WmuAYTsLGpBGhQ2"
    },
    "id": "3726658",
    "neo_reference_id": "3726658",
    "name": "(2015 QB9)",
    "designation": "2015 QB9",
    "nasa_jpl_url": "http://ssd.jpl.nasa.gov/sbdb.cgi?sstr=3726658",
    "absolute_magnitude_h": 24.0,
    "estimated_diameter": {
        "kilometers": {
            "estimated_diameter_min": 0.0421264611,
            "estimated_diameter_max": 0.0941976306
        },
        "meters": {
            "estimated_diameter_min": 42.1264610556,
            "estimated_diameter_max": 94.1976305719
        },
        "miles": {
            "estimated_diameter_min": 0.0261761612,
            "estimated_diameter_max": 0.0585316759
        },
        "feet": {
            "estimated_diameter_min": 138.2101784897,
            "estimated_diameter_max": 309.0473542854
        }
    },
    "is_potentially_hazardous_asteroid": false,
    "close_approach_data": [
        {
            "close_approach_date": "2013-02-18",
            "close_approach_date_full": "2013-Feb-18 14:51",
            "epoch_date_close_approach": 1361199060000,
            "relative_velocity": {
                "kilometers_per_second": "26.5266145391",
                "kilometers_per_hour": "95495.8123409224",
                "miles_per_hour": "59337.3840626137"
            },
            "miss_distance": {
                "astronomical": "0.3079936314",
                "lunar": "119.8095226146",
                "kilometers": "46075191.231005118",
                "miles": "28629796.2496539084"
            },
            "orbiting_body": "Earth"
        },
        {
            "close_approach_date": "2015-07-04",
            "close_approach_date_full": "2015-Jul-04 22:05",
            "epoch_date_close_approach": 1436047500000,
            "relative_velocity": {
                "kilometers_per_second": "10.5529444297",
                "kilometers_per_hour": "37990.5999468224",
                "miles_per_hour": "23605.8813947353"
            },
            "miss_distance": {
                "astronomical": "0.0914247755",
                "lunar": "35.5642376695",
                "kilometers": "13676951.680028185",
                "miles": "8498463.694971553"
            },
            "orbiting_body": "Venus"
        },
        {
            "close_approach_date": "2015-08-19",
            "close_approach_date_full": "2015-Aug-19 01:02",
            "epoch_date_close_approach": 1439946120000,
            "relative_velocity": {
                "kilometers_per_second": "16.8254958288",
                "kilometers_per_hour": "60571.7849837351",
                "miles_per_hour": "37636.9516194769"
            },
            "miss_distance": {
                "astronomical": "0.0303363782",
                "lunar": "11.8008511198",
                "kilometers": "4538257.562234434",
                "miles": "2819942.4867018292"
            },
            "orbiting_body": "Earth"
        }
    ],
    "orbital_data": {
        "orbit_id": "9",
        "orbit_determination_date": "2017-04-06 08:32:15",
        "first_observation_date": "2015-08-22",
        "last_observation_date": "2015-09-06",
        "data_arc_in_days": 15,
        "observations_used": 78,
        "orbit_uncertainty": "8",
        "minimum_orbit_intersection": ".0205617",
        "jupiter_tisserand_invariant": "3.963",
        "epoch_osculation": "2457259.5",
        "eccentricity": ".5927058523288391",
        "semi_major_axis": "1.707476936921419",
        "inclination": "7.166018920007739",
        "ascending_node_longitude": "156.9738757508971",
        "orbital_period": "814.949497617079",
        "perihelion_distance": ".6954453636915741",
        "perihelion_argument": "88.41303914275753",
        "aphelion_distance": "2.719508510151265",
        "perihelion_time": "2457203.550154217373",
        "mean_anomaly": "24.71557383695674",
        "mean_motion": ".4417451646422801",
        "equinox": "J2000",
        "orbit_class": {
            "orbit_class_type": "APO",
            "orbit_class_description": "Near-Earth asteroid orbits which cross the Earth’s orbit similar to that of 1862 Apollo",
            "orbit_class_range": "a (semi-major axis) > 1.0 AU; q (perihelion) < 1.017 AU"
        }
    },
    "is_sentry_object": false
}